QZS-1R                  
1 49336U 21096A   24199.59224787 -.00000279  00000+0  00000+0 0  9999
2 49336  36.0034  90.0685 0758333 272.0675 278.9813  1.00248401  9994
